FENGYUN 3B              
1 37214U 10059A   24241.57917543  .00000309  00000+0  18486-3 0  9997
2 37214  99.0521 270.6721 0021213 247.0551 225.1880 14.14550350714447
COSMO-SKYMED 4          
1 37216U 10060A   24241.82368756  .00001729  00000+0  22368-3 0  9996
2 37216  97.8895  63.9118 0001504  80.9470 279.1913 14.82158350747257
O/OREOS (USA 219)       
1 37224U 10062C   24241.42583864  .00005998  00000+0  65689-3 0  9997
2 37224  71.9721 124.9727 0017579 239.3137 120.6299 14.88016708 18579
ELEKTRO-L 1 (GOMS 2)    
1 37344U 11001A   24241.20701882  .00000000  00000+0  00000+0 0  9993
2 37344   8.1765  60.9016 0005075  34.9044 319.9711  1.00234657 49881
RESOURCESAT-2           
1 37387U 11015A   24241.51121266  .00000538  00000+0  26455-3 0  9993
2 37387  98.5715 305.2400 0003099 265.4870  94.5954 14.21696606692736
YOUTHSAT                
1 37388U 11015B   24241.26579604  .00000669  00000+0  30264-3 0  9997
2 37388  98.3039 236.9824 0015860 112.7922 258.0819 14.24995261693915
APRIZESAT 6             
1 37793U 11044F   24241.42274306  .00002645  00000+0  39727-3 0  9997
2 37793  98.2904 126.5569 0045614  28.5360 146.8300 14.74734444700114
JUGNU                   
1 37839U 11058B   24241.61814645  .00000862  00000+0  31277-3 0  9991
2 37839  19.9618 342.2387 0018851  16.4500  11.7171 14.13291476665872
SRMSAT                  
1 37841U 11058D   24241.26172214  .00000763  00000+0  27236-3 0  9994
2 37841  19.9723  80.8338 0011753 166.9692 350.1043 14.11183088664751
SUOMI NPP               
1 37849U 11061A   24241.57154995  .00000353  00000+0  18795-3 0  9991
2 37849  98.7236 178.4696 0001974  72.4950 287.6442 14.19559671665140
YAOGAN-12               
1 37875U 11066B   24241.57746846  .00023561  00000+0  10021-2 0  9996
2 37875  97.2141 298.3151 0008497  42.0466 318.1422 15.22984423711870
ZIYUAN 3-1 (ZY 3-1)     
1 38046U 12001A   24241.81248530  .00030696  00000+0  90464-3 0  9998
2 38046  97.2400 302.3061 0003916 220.1263 139.9692 15.34965937702061
BEIDOU-2 M4             
1 38251U 12018B   24241.35171248 -.00000103  00000+0  00000+0 0  9998
2 38251  56.1934 326.2072 0014502 260.0882  99.7911  1.86231913 84045
ARIRANG-3 (KOMPSAT-3)   
1 38338U 12025B   24241.57345551  .00002032  00000+0  40531-3 0  9995
2 38338  98.2661 187.9479 0010667  21.3695 338.7950 14.63042007655244
HORYU-2                 
1 38340U 12025D   24241.52023827  .00010972  00000+0  13611-2 0  9992
2 38340  98.1666 342.7868 0010235 159.8643 200.2976 14.82786337650940
CSSWE                   
1 38761U 12048D   24240.97932222  .00019873  00000+0  10525-2 0  9990
2 38761  64.6685 103.6757 0119480 352.6757   7.2612 15.09441581 15922
CP5                     
1 38763U 12048F   24241.40867777  .00022461  00000+0  13198-2 0  9999
2 38763  64.6612 131.2332 0126713 359.7050   0.3971 15.05106919 16978
METOP-B                 
1 38771U 12049A   24241.81550985  .00000392  00000+0  19885-3 0  9993
2 38771  98.6220 297.3859 0000950 109.4989 250.6291 14.21487992619864
SJ-9A                   
1 38860U 12056A   24241.55735133  .00003370  00000+0  42437-3 0  9999
2 38860  97.5977 230.6841 0025757 259.6625 100.1686 14.82424654602039
COSMOS 2484             
1 39059U 13001C   24241.50447720  .00000056  00000+0  32849-3 0  9992
2 39059  82.4974 270.8247 0026961  31.3807 328.8875 12.42903310526850
SARAL                   
1 39086U 13009A   24241.86432976  .00000442  00000+0  17934-3 0  9993
2 39086  98.5530  65.9811 0003028  77.4304 282.7218 14.32484136601481
AAUSAT 3                
1 39087U 13009B   24240.94028758  .00001933  00000+0  65241-3 0  9991
2 39087  98.3705  69.5771 0012582  32.8956 327.3012 14.38013286602492
STRAND-1                
1 39090U 13009E   24241.52604210  .00001147  00000+0  40748-3 0  9995
2 39090  98.3824  67.8293 0009646  42.3166 317.8763 14.36220401602645
BRITE-AUSTRIA           
1 39091U 13009F   24241.79533887  .00000757  00000+0  27546-3 0  9993
2 39091  98.3870  67.3662 0011215  47.5896 312.6237 14.35906369602691
UNIBRITE                
1 39092U 13009G   24241.40052625  .00000691  00000+0  25363-3 0  9990
2 39092  98.3909  66.9253 0010098  45.4798 314.7211 14.35778496602572
AIST-2 (RS-43)          
1 39133U 13015D   24241.59081796  .00013851  00000+0  75774-3 0  9997
2 39133  64.8696 230.4471 0017427 312.0093  47.9546 15.14368188623887
GAOFEN-1                
1 39150U 13018A   24241.84628128  .00002427  00000+0  35504-3 0  9997
2 39150  97.9842 313.4221 0019032 221.1621 138.8155 14.76466603611287
NEE-01 PEGASO           
1 39151U 13018B   24241.32201665  .00008146  00000+0  92159-3 0  9997
2 39151  98.0422 359.2032 0015059 161.5794 198.5969 14.86635523612686
TURKSAT-3USAT           
1 39152U 13018C   24241.51647300  .00011776  00000+0  12785-2 0  9998
2 39152  97.8269 326.3126 0015481 122.4082 237.8635 14.88197932612953
CUBEBUG-1 (CAPITAN BETO)
1 39153U 13018D   24241.57335573  .00012760  00000+0  13737-2 0  9993
2 39153  98.0827   8.4024 0014599 152.4804 207.7188 14.88537566612899
PROBA-V                 
1 39159U 13021A   24241.55435132  .00000305  00000+0  15247-3 0  9994
2 39159  98.3097 244.0442 0002962 255.3486 104.7366 14.23309855587554
ESTCUBE 1               
1 39161U 13021C   24241.10016146  .00004610  00000+0  66045-3 0  9993
2 39161  97.8231 305.3786 0008658   6.4317 353.7003 14.77005418607700
ARIRANG-5 (KOMPSAT-5)   
1 39227U 13042A   24241.53120034  .00006173  00000+0  44502-3 0  9998
2 39227  97.6216  66.4205 0001487 142.6540 217.4789 15.04505874604974
GONETS-M 5              
1 39249U 13048A   24241.52986092  .00000031  00000+0  15518-3 0  9993
2 39249  82.4825  33.3386 0016522 204.7784 155.2503 12.42899937497186
GONETS-M 7              
1 39251U 13048C   24241.82568924  .00000056  00000+0  33032-3 0  9997
2 39251  82.4890  35.7277 0017061 204.9735 155.0521 12.42878832497351
FENGYUN 3C              
1 39260U 13052A   24241.58288834  .00000385  00000+0  21454-3 0  9994
2 39260  98.4332 237.3658 0012196 115.3594 244.8846 14.16263097565519
CASSIOPE                
1 39265U 13055A   24241.56385577  .00053657  00000+0  10669-2 0  9997
2 39265  80.9518 114.9845 0481263  41.6032 322.0754 14.74523491569047
APRIZESAT 7             
1 39416U 13066A   24241.42090710  .00003969  00000+0  43423-3 0  9990
2 39416  97.6765 198.2871 0036999 227.8268 131.9805 14.87875473583278
ZACUBE-1 (TSHEPISOSAT)  
1 39417U 13066B   24241.38970045  .00011326  00000+0  11397-2 0  9994
2 39417  97.7385 195.8098 0047191 282.0086  77.5845 14.90524767582335
APRIZESAT 8             
1 39425U 13066K   24241.60514055  .00004090  00000+0  48141-3 0  9991
2 39425  97.7336 191.9080 0046936 288.8160  70.7967 14.84582025581985
CINEMA-3 (KHUSAT-2)     
1 39426U 13066L   24241.33319002  .00003725  00000+0  53182-3 0  9992
2 39426  97.8391 161.0037 0096747 178.0809 182.0791 14.74104104577369
TRITON-1                
1 39427U 13066M   24241.59249419  .00007521  00000+0  10377-2 0  9991
2 39427  97.8362 157.2730 0100414 207.9182 151.6619 14.74976084576889
DELFI-N3XT              
1 39428U 13066N   24241.52694274  .00015952  00000+0  19574-2 0  9993
2 39428  97.8325 158.0135 0097015 212.7588 146.7586 14.79834731576967
GOMX-1                  
1 39430U 13066Q   24241.88638851  .00006693  00000+0  10951-2 0  9996
2 39430  97.7218 111.8566 0139376  22.2632 338.4543 14.64803522573683
BRITE-PL1 (LEM)         
1 39431U 13066R   24241.40876925  .00002254  00000+0  47413-3 0  9994
2 39431  97.7142  33.6167 0195010 256.8397 101.0976 14.49239499568573
ICUBE-1                 
1 39432U 13066S   24241.17466964  .00019579  00000+0  14176-2 0  9994
2 39432  97.5051 220.6498 0028374  88.8062 271.6415 15.03694324584759
HUMSAT-D                
1 39433U 13066T   24241.52974784  .00041592  00000+0  23844-2 0  9990
2 39433  97.4932 231.5171 0019167  46.2840 313.9974 15.12293674585673
VELOX-PII               
1 39438U 13066Y   24241.57426416  .00011779  00000+0  13288-2 0  9999
2 39438  97.7906 187.7392 0060972 356.1526   3.9212 14.85358118579918
FIRST-MOVE              
1 39439U 13066Z   24241.38274026  .00035441  00000+0  25549-2 0  9992
2 39439  97.7157 204.5226 0037961 249.1937 110.5220 15.03466910582807
CUBEBUG-2 (LO-74)       
1 39440U 13066AA  24241.60350398  .00014260  00000+0  16278-2 0  9991
2 39440  97.8146 183.7610 0069926  38.9296 321.6923 14.84403174579072
NEE-02 KRYSAOR          
1 39441U 13066AB  24241.55788468  .00008473  00000+0  10524-2 0  9996
2 39441  97.8233 179.2991 0075131  61.3815 299.4928 14.80819744578643
FUNCUBE-1 (AO-73)       
1 39444U 13066AE  24241.40308597  .00015235  00000+0  14135-2 0  9990
2 39444  97.7233 199.1485 0044273 259.9418  99.6805 14.93765184580886
HINCUBE                 
1 39445U 13066AF  24241.60540844  .00017432  00000+0  16327-2 0  9992
2 39445  97.7252 198.9676 0044548 262.9542  96.6611 14.93354066580834
UWE-3                   
1 39446U 13066AG  24241.61013448  .00015651  00000+0  16864-2 0  9996
2 39446  97.7843 189.8614 0058246 343.6176  16.3156 14.87264651580052
SMDC ONE 2.4            
1 39469U 13072H   24241.43062482  .00019973  00000+0  11816-2 0  9993
2 39469 120.5002  13.3582 0212157  31.7621 329.6048 14.94616221 18651
CP8 (IPEX)              
1 39471U 13072K   24241.35734009  .00016068  00000+0  10451-2 0  9994
2 39471 120.4740 348.4246 0219235  27.4745 333.7717 14.90631934 16510
COSMOS 2488             
1 39483U 13076A   24241.53471408  .00000052  00000+0  30484-3 0  9997
2 39483  82.4825 218.5133 0020710  87.3135 273.0315 12.42889789484193
COSMOS 2489             
1 39484U 13076B   24241.58879793  .00000057  00000+0  34221-3 0  9990
2 39484  82.4861 219.6589 0022772  88.5549 271.8139 12.42883395484257
COSMOS 2490             
1 39485U 13076C   24241.55996128  .00000055  00000+0  32234-3 0  9990
2 39485  82.4809 218.0315 0022468 102.5233 257.8362 12.42897264484183
